#dP2024  6  7  0  0  0.00000000      96 __u+U IGS20 FIT  IAC
## 2317 432000.00000000   900.00000000 60468 0.0000000000000
+   54   G02G03G04G05G06G07G08G09G10G11G12G13G14G15G16G17G18
+        G19G20G21G22G23G24G25G26G27G28G29G30G31G32R01R02R03
+        R04R05R07R08R09R11R12R13R14R15R16R17R18R19R20R21R22
+        R24R25R26  0  0  0  0  0  0  0  0  0  0  0  0  0  0
+          0  0  0  0  0  0  0  0  0  0  0  0  0  0  0  0  0
++         6  6  6  5  6  6  7  5  5  7  5  6  6  7  5  5  6
++         6  6  5  6  6  6  5  6  6  5  4  6  5  7  6  6  6
++         5  6  5  6  7  5  7  6  5  6  7  7  7  6  6  6  7
++         5  5  7  0  0  0  0  0  0  0  0  0  0  0  0  0  0
++         0  0  0  0  0  0  0  0  0  0  0  0  0  0  0  0  0
%c M  cc GPS ccc cccc cccc cccc cccc ccccc ccccc ccccc ccccc
%c cc cc ccc ccc cccc cccc cccc cccc ccccc ccccc ccccc ccccc
%f  0.0000000  0.000000000  0.00000000000  0.000000000000000
%f  0.0000000  0.000000000  0.00000000000  0.000000000000000
%i    0    0    0    0      0      0      0      0         0
%i    0    0    0    0      0      0      0      0         0
/* INFORMATION & ANALYSIS CENTER (IAC)      ULTRA-RAPID DATA
/* S/V CLOCKS ARE ALIGNED TO GNSS TIME                      
/* G:C1WC2W R:C1PC2P E:C1XC5X C:C2IC6I J:C1CC2S             
/* PCV:IGS20_2317 OL/AL:FES2004  NONE     YN ORB:CoN CLK:CoN
*  2024 06 07 13  0  0.00000000
PG02  14349.774813  -6609.415592  21790.342284   -422.123924
PG03  23168.090984 -12642.256972   2146.358956    402.119726
PG04  19493.841096  -2997.907861 -17836.376729    378.077299
PG05 -21308.003433   1434.631754 -16026.632025   -175.481491
PG06  -5344.022904 -24861.256669  -7408.441580    231.711630
PG07   6221.366222 -23424.060248  -9780.545545   -100.072435
PG08  24623.901467   4716.037320   9277.464099    218.139611
PG09   8340.376883 -12902.453119 -21749.498488    225.635512
PG10   -268.828560  16523.932152  20921.474483    -37.864664
PG11 -12128.748889 -15482.560190 -17853.950073   -680.261451
PG12 -24273.677302   9907.470279   3795.360939   -512.068600
PG13 -22607.628097 -13750.584909   3267.300425    656.240745
PG14   4430.907517 -18278.190507  18707.163684    419.680599
PG15 -24927.002808  -1892.220746   8748.420606    167.527431
PG16  19992.407646   3639.504191 -17664.122227   -270.831576
PG17  -5163.785360 -18351.987816  18844.699860    697.851651
PG18  -6210.670495  23826.110159  -9679.276034   -621.755971
PG19 -14178.873538 -19311.827821  11710.357837    493.049617
PG20 -14985.423259  -6414.432084 -20883.767536    374.093186
PG21  15529.589924    254.828626  22026.418082    116.940488
PG22  -3342.855986 -15384.498993  21839.994033    -24.162111
PG23 -12180.713940  19108.317031  13713.396789    244.539028
PG24 -15085.145700   4380.132850  20970.937089   -476.018847
PG25 -19762.883681  16943.382702  -4856.535824    496.993072
PG26   9442.946605  12819.332962 -21408.026982    140.845193
PG27  23293.465510  13200.348574  -1298.921387    -27.327268
PG28   5093.167303  25615.733279  -4845.486275   -278.229945
PG29 -12024.167359   9854.694639 -21600.767751   -595.279133
PG30  -1021.698358 -26392.446976    209.778642   -378.112584
PG31  10757.804313  19162.298999 -14846.756097   -227.522771
PG32   8834.447512  18289.841260  17430.812649   -616.891713
PR01 -25343.709196  -2743.965845  -1160.237914     87.698170
PR02 -19921.859772   4644.788350  15243.907594    -23.200850
PR03  -3223.885099  10505.388723  23065.661496    101.624869
PR04  14621.916968  10313.610356  18215.044172    240.015203
PR05  24796.901259   4849.321443   3588.227444    132.714603
PR07   2474.583235 -10574.247573 -23039.226465     84.057319
PR08 -14938.402008 -10188.878280 -17915.721147     -4.694456
PR09  16877.011775 -17153.412722  -8310.671291    190.905144
PR11  -1169.664578 -15053.247309  20566.698485     22.183823
PR12 -14079.495163   2010.693072  21200.913345     41.031928
PR13 -17315.528328  15331.857256  10750.686811    -48.128069
PR14 -10293.263185  21620.199578  -8808.900474     26.556117
PR15   2360.056241  14005.585388 -21167.315464     79.047825
PR16  13831.052995  -1932.767047 -21322.249834     26.264544
PR17   2557.356080  21576.468284 -13327.445763     93.713608
PR18  10793.891787  22982.430331   2704.308987    145.857025
PR19  13233.979488  14546.936809  16235.473288   -279.452056
PR20   8428.751744  -6875.914802  23070.740630   -114.077673
PR21  -2294.927519 -21507.691451  13537.693636   -107.273497
PR22 -10667.579333 -22846.054194  -3808.039423    105.356457
PR24  -8272.049553   7993.922897 -22754.841602    -58.907663
PR25  -1727.890637 -21894.357528  12994.161548    -35.279615
PR26 -13836.935843 -10351.810164 -18751.692196     -6.813294
*  2024 06 07 13 15  0.00000000
PG02  14748.497702  -4229.596426  22146.670616   -422.117904
PG03  22918.976633 -12243.526344   5018.279748    402.136286
PG04  21130.895310  -1955.020375 -16039.405242    378.084570
PG05 -19859.111342    194.945101 -17858.446381   -175.482997
PG06  -5204.917090 -25563.728167  -4599.574823    231.692810
PG07   6599.572350 -22098.938240 -12229.996051   -100.061581
PG08  25365.376116   5300.398671   6659.184537    218.156373
PG09  10553.331849 -11848.296942 -21388.331801    225.648510
PG10  -2218.820631  17724.390864  19751.571751    -37.871753
PG11 -12017.016135 -17425.995845 -16054.801606   -680.268979
PG12 -23855.290696   9378.423895   6575.088529   -512.071347
PG13 -22682.306899 -14052.649666    414.561667    656.243104
PG14   6259.799860 -19233.410432  17140.054235    419.688792
PG15 -25705.003776  -2451.924619   6131.421332    167.531250
PG16  18262.269029   4714.069853 -19205.021571   -270.822274
PG17  -3237.039190 -17378.790117  20193.047625    697.847074
PG18  -6472.432548  22579.980633 -12186.684704   -621.760587
PG19 -12833.909398 -18665.324724  14010.292813    493.054638
PG20 -13270.964001  -8149.530727 -21442.770547    374.092490
PG21  15916.192078   2622.470948  21674.523749    116.938357
PG22  -1242.745106 -16491.131225  21258.884475    -24.166280
PG23 -13451.612729  19793.874073  11325.562119    244.547265
PG24 -15518.274182   1912.988592  21060.740991   -476.021360
PG25 -20230.006929  16904.920945  -2042.595046    496.993504
PG26   7524.216508  14292.713004 -21200.119726    140.839576
PG27  22953.007304  13275.635431  -4110.966399    -27.328626
PG28   4881.147801  26030.800546  -2025.479008   -278.245325
PG29 -14080.295701   8585.646348 -20897.166655   -595.277858
PG30   -662.310151 -26261.199015  -2604.688149   -378.107108
PG31  10595.446302  20726.870665 -12633.000829   -227.522548
PG32   6941.644596  17521.126812  19006.952646   -616.890763
PR01 -25011.959887  -2578.570236  -4347.920338     87.699039
PR02 -21644.568089   4620.865736  12673.306969    -23.200562
PR03  -6022.522257  10298.341902  22587.726686    101.625401
PR04  12286.839014   9995.728024  20028.919408    240.016888
PR05  24181.214935   4612.772265   6733.029671    132.715646
PR07   5297.567220 -10359.415034 -22662.043583     84.058048
PR08 -12614.260473  -9903.465525 -19763.699002     -4.694866
PR09  16158.151914 -16179.098542 -11193.707470    190.906359
PR11    129.117730 -17113.381216  18920.039521     22.183198
PR12 -12535.685712   -172.302589  22241.246594     41.032422
PR13 -16394.277502  14148.384521  13471.083003    -48.128155
PR14 -10702.756847  22431.162112  -5779.707982     26.555313
PR15    980.743326  16124.002948 -19721.599577     79.047701
PR16  12280.252802    275.951306 -22336.068257     26.265244
PR17   1928.343725  19880.412223 -15838.019168     93.716542
PR18  11038.455887  23018.290072   -527.792577    145.858756
PR19  14099.348196  16196.410655  13756.910625   -279.453128
PR20   9508.232239  -4221.861173  23291.514674   -114.077636
PR21  -1680.893544 -19780.139464  16029.054290   -107.275939
PR22 -10910.243662 -23042.846474   -609.451247    105.352813
PR24  -9452.888548   5422.612896 -23052.330754    -58.908938
PR25  -1157.527781 -20227.165767  15513.427554    -35.307789
PR26 -11427.569823 -10078.530111 -20443.031557     -6.812568
EOF
